{"type": "FeatureCollection", "features": [ {"type": "Feature", "properties": {"norad_id": 66594, "name": "STARLINK-36032", "group": "last-30-days", "lat": -1.7063713555956828, "lon": 59.1414190010185, "alt_km": 337.36050867403355, "timestamp": "2025-12-05T04:52:14.142884+00:00", "meta": {"OBJECT_NAME": "STARLINK-36032", "OBJECT_ID": "2025-270G", "EPOCH": "2025-12-04T17:27:41.831136", "MEAN_MOTION": 15.77063512, "ECCENTRICITY": 0.0013475, "INCLINATION": 42.9972, "RA_OF_ASC_NODE": 240.2038, "ARG_OF_PERICENTER": 269.3306, "MEAN_ANOMALY": 90.602, "EPHEMERIS_TYPE": 0, "CLASSIFICATION_TYPE": "U", "NORAD_CAT_ID": 66594, "ELEMENT_SET_NO": 999, "REV_AT_EPOCH": 290, "BSTAR": 0.0030656, "MEAN_MOTION_DOT": 0.00551337, "MEAN_MOTION_DDOT": 0}, "tle": {"line1": "1 66594U 25270G   25338.72756749  .00551337  00000+0  30656-2 0  9999", "line2": "2 66594  42.9972 240.2038 0013475 269.3306  90.6020 15.77063512  2908"}}, "geometry": {"type": "Point", "coordinates": [59.1414190010185, -1.7063713555956828]}}, {"type": "Feature", "properties": {"norad_id": 66595, "name": "STARLINK-35711", "group": "last-30-days", "lat": 12.158749806855154, "lon": 43.9917624794511, "alt_km": 342.33535278654745, "timestamp": "2025-12-05T04:52:14.142893+00:00", "meta": {"OBJECT_NAME": "STARLINK-35711", "OBJECT_ID": "2025-270H", "EPOCH": "2025-12-04T16:00:44.345088", "MEAN_MOTION": 15.75069212, "ECCENTRICITY": 0.0002406, "INCLINATION": 42.9987, "RA_OF_ASC_NODE": 240.6131, "ARG_OF_PERICENTER": 272.2557, "MEAN_ANOMALY": 87.8037, "EPHEMERIS_TYPE": 0, "CLASSIFICATION_TYPE": "U", "NORAD_CAT_ID": 66595, "ELEMENT_SET_NO": 999, "REV_AT_EPOCH": 319, "BSTAR": 0.0016803, "MEAN_MOTION_DOT": 0.00266303, "MEAN_MOTION_DDOT": 0}, "tle": {"line1": "1 66595U 25270H   25338.66717992  .00266303  00000+0  16803-2 0  9994", "line2": "2 66595  42.9987 240.6131 0002406 272.2557  87.8037 15.75069212  3195"}}, "geometry": {"type": "Point", "coordinates": [43.9917624794511, 12.158749806855154]}}, {"type": "Feature", "properties": {"norad_id": 66596, "name": "STARLINK-35811", "group": "last-30-days", "lat": 10.186945042393813, "lon": 46.232642600578814, "alt_km": 347.62848637400566, "timestamp": "2025-12-05T04:52:14.142902+00:00", "meta": {"OBJECT_NAME": "STARLINK-35811", "OBJECT_ID": "2025-270J", "EPOCH": "2025-12-04T15:59:44.301408", "MEAN_MOTION": 15.75427926, "ECCENTRICITY": 0.0004617, "INCLINATION": 42.9987, "RA_OF_ASC_NODE": 240.6055, "ARG_OF_PERICENTER": 284.7362, "MEAN_ANOMALY": 75.2995, "EPHEMERIS_TYPE": 0, "CLASSIFICATION_TYPE": "U", "NORAD_CAT_ID": 66596, "ELEMENT_SET_NO": 999, "REV_AT_EPOCH": 319, "BSTAR": -0.0086062, "MEAN_MOTION_DOT": -0.01194988, "MEAN_MOTION_DDOT": 0}, "tle": {"line1": "1 66596U 25270J   25338.66648497 -.01194988  00000+0 -86062-2 0  9994", "line2": "2 66596  42.9987 240.6055 0004617 284.7362  75.2995 15.75427926  3193"}}, "geometry": {"type": "Point", "coordinates": [46.232642600578814, 10.186945042393813]}}, {"type": "Feature", "properties": {"norad_id": 66597, "name": "STARLINK-35820", "group": "last-30-days", "lat": -8.22241913206307, "lon": 66.204892582128, "alt_km": 334.3881397903551, "timestamp": "2025-12-05T04:52:14.142911+00:00", "meta": {"OBJECT_NAME": "STARLINK-35820", "OBJECT_ID": "2025-270K", "EPOCH": "2025-12-04T15:54:56.043360", "MEAN_MOTION": 15.78717724, "ECCENTRICITY": 0.0019975, "INCLINATION": 43.0025, "RA_OF_ASC_NODE": 240.58, "ARG_OF_PERICENTER": 286.3097, "MEAN_ANOMALY": 73.5577, "EPHEMERIS_TYPE": 0, "CLASSIFICATION_TYPE": "U", "NORAD_CAT_ID": 66597, "ELEMENT_SET_NO": 999, "REV_AT_EPOCH": 319, "BSTAR": 0.0039061, "MEAN_MOTION_DOT": 0.00781523, "MEAN_MOTION_DDOT": 0}, "tle": {"line1": "1 66597U 25270K   25338.66314865  .00781523  00000+0  39061-2 0  9995", "line2": "2 66597  43.0025 240.5800 0019975 286.3097  73.5577 15.78717724  3190"}}, "geometry": {"type": "Point", "coordinates": [66.204892582128, -8.22241913206307]}}, {"type": "Feature", "properties": {"norad_id": 66598, "name": "STARLINK-35981", "group": "last-30-days", "lat": 6.322346700976981, "lon": 50.508159250569065, "alt_km": 349.2229767705803, "timestamp": "2025-12-05T04:52:14.142920+00:00", "meta": {"OBJECT_NAME": "STARLINK-35981", "OBJECT_ID": "2025-270L", "EPOCH": "2025-12-04T15:58:16.578624", "MEAN_MOTION": 15.7542585, "ECCENTRICITY": 0.0005401, "INCLINATION": 42.9991, "RA_OF_ASC_NODE": 240.597, "ARG_OF_PERICENTER": 302.4449, "MEAN_ANOMALY": 57.5898, "EPHEMERIS_TYPE": 0, "CLASSIFICATION_TYPE": "U", "NORAD_CAT_ID": 66598, "ELEMENT_SET_NO": 999, "REV_AT_EPOCH": 292, "BSTAR": -0.0087258, "MEAN_MOTION_DOT": -0.01210212, "MEAN_MOTION_DDOT": 0}, "tle": {"line1": "1 66598U 25270L   25338.66546966 -.01210212  00000+0 -87258-2 0  9991", "line2": "2 66598  42.9991 240.5970 0005401 302.4449  57.5898 15.75425850  2920"}}, "geometry": {"type": "Point", "coordinates": [50.508159250569065, 6.322346700976981]}}, {"type": "Feature", "properties": {"norad_id": 66599, "name": "STARLINK-35930", "group": "last-30-days", "lat": 8.312732293654951, "lon": 48.32274160819257, "alt_km": 346.7228376350895, "timestamp": "2025-12-05T04:52:14.142929+00:00", "meta": {"OBJECT_NAME": "STARLINK-35930", "OBJECT_ID": "2025-270M", "EPOCH": "2025-12-04T00:45:37.693728", "MEAN_MOTION": 15.75348253, "ECCENTRICITY": 0.00019861, "INCLINATION": 42.9984, "RA_OF_ASC_NODE": 244.4479, "ARG_OF_PERICENTER": 267.8069, "MEAN_ANOMALY": 92.2573, "EPHEMERIS_TYPE": 0, "CLASSIFICATION_TYPE": "U", "NORAD_CAT_ID": 66599, "ELEMENT_SET_NO": 999, "REV_AT_EPOCH": 298, "BSTAR": -0.0039524111, "MEAN_MOTION_DOT": -0.00575796, "MEAN_MOTION_DDOT": 0}, "tle": {"line1": "1 66599U 25270M   25338.03168627 -.00575796  00000+0 -39524-2 0  9990", "line2": "2 66599  42.9984 244.4479 0001986 267.8069  92.2573 15.75348253  2989"}}, "geometry": {"type": "Point", "coordinates": [48.32274160819257, 8.312732293654951]}}, {"type": "Feature", "properties": {"norad_id": 66600, "name": "STARLINK-35980", "group": "last-30-days", "lat": -10.00749351524032, "lon": 68.19312114882172, "alt_km": 338.25134568286103, "timestamp": "2025-12-05T04:52:14.142939+00:00", "meta": {"OBJECT_NAME": "STARLINK-35980", "OBJECT_ID": "2025-270N", "EPOCH": "2025-12-04T03:46:22.938816", "MEAN_MOTION": 15.79349544, "ECCENTRICITY": 0.00188251, "INCLINATION": 43.0002, "RA_OF_ASC_NODE": 243.6684, "ARG_OF_PERICENTER": 318.1688, "MEAN_ANOMALY": 41.7743, "EPHEMERIS_TYPE": 0, "CLASSIFICATION_TYPE": "U", "NORAD_CAT_ID": 66600, "ELEMENT_SET_NO": 999, "REV_AT_EPOCH": 290, "BSTAR": 0.0025460562, "MEAN_MOTION_DOT": 0.00507436, "MEAN_MOTION_DDOT": 0}, "tle": {"line1": "1 66600U 25270N   25338.15720994  .00507436  00000+0  25461-2 0  9996", "line2": "2 66600  43.0002 243.6684 0018825 318.1688  41.7743 15.79349544  2909"}}, "geometry": {"type": "Point", "coordinates": [68.19312114882172, -10.00749351524032]}}, {"type": "Feature", "properties": {"norad_id": 66601, "name": "STARLINK-35978", "group": "last-30-days", "lat": 4.847222114037194, "lon": 52.1096682408915, "alt_km": 341.77537114923507, "timestamp": "2025-12-05T04:52:14.142951+00:00", "meta": {"OBJECT_NAME": "STARLINK-35978", "OBJECT_ID": "2025-270P", "EPOCH": "2025-12-04T02:15:56.284416", "MEAN_MOTION": 15.75298164, "ECCENTRICITY": 0.00071106, "INCLINATION": 42.9977, "RA_OF_ASC_NODE": 244.0577, "ARG_OF_PERICENTER": 214.9985, "MEAN_ANOMALY": 145.0417, "EPHEMERIS_TYPE": 0, "CLASSIFICATION_TYPE": "U", "NORAD_CAT_ID": 66601, "ELEMENT_SET_NO": 999, "REV_AT_EPOCH": 283, "BSTAR": -0.0021837609, "MEAN_MOTION_DOT": -0.00327668, "MEAN_MOTION_DDOT": 0}, "tle": {"line1": "1 66601U 25270P   25338.09440144 -.00327668  00000+0 -21838-2 0  9999", "line2": "2 66601  42.9977 244.0577 0007110 214.9985 145.0417 15.75298164  2838"}}, "geometry": {"type": "Point", "coordinates": [52.1096682408915, 4.847222114037194]}}, {"type": "Feature", "properties": {"norad_id": 66602, "name": "STARLINK-36050", "group": "last-30-days", "lat": -42.9140229163419, "lon": 143.38365147354463, "alt_km": 223.877036620971, "timestamp": "2025-12-05T04:52:14.142960+00:00", "meta": {"OBJECT_NAME": "STARLINK-36050", "OBJECT_ID": "2025-270Q", "EPOCH": "2025-12-03T23:11:57.245856", "MEAN_MOTION": 15.81066635, "ECCENTRICITY": 0.00264193, "INCLINATION": 42.9973, "RA_OF_ASC_NODE": 244.8203, "ARG_OF_PERICENTER": 271.6989, "MEAN_ANOMALY": 88.0856, "EPHEMERIS_TYPE": 0, "CLASSIFICATION_TYPE": "U", "NORAD_CAT_ID": 66602, "ELEMENT_SET_NO": 999, "REV_AT_EPOCH": 287, "BSTAR": 0.03628424, "MEAN_MOTION_DOT": 0.09497794, "MEAN_MOTION_DDOT": 0}, "tle": {"line1": "1 66602U 25270Q   25337.96663479  .09497794  00000+0  36284-1 0  9998", "line2": "2 66602  42.9973 244.8203 0026419 271.6989  88.0856 15.81066635  2876"}}, "geometry": {"type": "Point", "coordinates": [143.38365147354463, -42.9140229163419]}}, {"type": "Feature", "properties": {"norad_id": 66603, "name": "STARLINK-36048", "group": "last-30-days", "lat": -8.382028115269357, "lon": 66.38085226295426, "alt_km": 334.09623976075454, "timestamp": "2025-12-05T04:52:14.142969+00:00", "meta": {"OBJECT_NAME": "STARLINK-36048", "OBJECT_ID": "2025-270R", "EPOCH": "2025-12-03T21:40:34.816800", "MEAN_MOTION": 15.77266061, "ECCENTRICITY": 0.00104068, "INCLINATION": 42.9981, "RA_OF_ASC_NODE": 245.2035, "ARG_OF_PERICENTER": 263.8687, "MEAN_ANOMALY": 96.0997, "EPHEMERIS_TYPE": 0, "CLASSIFICATION_TYPE": "U", "NORAD_CAT_ID": 66603, "ELEMENT_SET_NO": 999, "REV_AT_EPOCH": 286, "BSTAR": 0.0029394154, "MEAN_MOTION_DOT": 0.00531136, "MEAN_MOTION_DDOT": 0}, "tle": {"line1": "1 66603U 25270R   25337.90318075  .00531136  00000+0  29394-2 0  9997", "line2": "2 66603  42.9981 245.2035 0010406 263.8687  96.0997 15.77266061  2865"}}, "geometry": {"type": "Point", "coordinates": [66.38085226295426, -8.382028115269357]}}]}